# From MPC106342
C/1995 O1 (Hale-Bopp),e,89.2570,282.7974,130.4158,177.1639,0.0004180,0.99497122,0.0000,03/29.6578/1997,2000,g -2.0,4.0
# From NK 1615
P/1996 R2 (Lagerkvist),e,2.6009,40.0095,333.3793,3.774662,0.1343962,0.31454035,169.3793,07/27.0/2022,2000,g 11.5,4.0
# From MPC 75703
P/1998 VS24 (LINEAR),e,5.0266,159.0407,244.6105,4.525860,0.1023652,0.24301394,168.8404,07/27.0/2022,2000,g 13.0,2.0
# From NK 731
P/1999 RO28 (LONEOS),e,7.5662,137.8777,231.2864,3.426542,0.1553889,0.67250661,174.9961,07/27.0/2022,2000,g 20.0,2.0
# From MPC 75704
P/1999 XN120 (Catalina),e,5.0298,285.2963,161.7049,4.179022,0.1153698,0.21033910,216.3103,07/27.0/2022,2000,g 13.5,2.0
# From NK 744
P/2000 R2 (LINEAR),e,11.6872,160.2854,176.5818,3.467503,0.1526437,0.53149641,173.2790,07/27.0/2022,2000,g 18.0,4.0
# From MPC 43019
P/2001 H5 (NEAT),e,8.3671,328.6846,224.7611,6.096275,0.0654798,0.59819979,162.2063,07/27.0/2022,2000,g 12.0,4.0
# From MPC 75704
P/2001 Q6 (NEAT),e,56.9115,22.1838,42.9344,7.957684,0.0439060,0.82328985,334.4714,07/27.0/2022,2000,g 13.5,4.0
# From MPC 47727
P/2002 EJ57 (LINEAR),e,4.9771,330.3135,167.2999,6.464614,0.0599639,0.59232112,89.9831,07/27.0/2022,2000,g 12.5,4.0
# From MPC109588
P/2002 T6 (NEAT-LINEAR),e,10.8494,206.0876,219.5901,7.720277,0.0459467,0.56211594,326.7229,07/27.0/2022,2000,g 10.5,4.0
# From MPC 75007
C/2002 VQ94 (LINEAR),e,70.6804,35.1292,100.0096,184.2964,0.0003939,0.96303771,2.3726,07/27.0/2022,2000,g  9.5,2.0
# From MPC 50354
P/2003 F2 (NEAT),e,11.6099,358.9996,192.2560,6.502446,0.0594414,0.54150392,58.7096,07/27.0/2022,2000,g 16.5,2.0
# From MPC 50139
P/2003 QX29 (NEAT),e,11.3926,264.5235,37.6397,8.017755,0.0434135,0.47267009,311.9699,07/27.0/2022,2000,g  8.5,4.0
# From MPC105235
P/2003 T12 (SOHO),e,11.0226,174.5865,219.7457,2.585560,0.2370676,0.77008370,192.2219,07/27.0/2022,2000,g 17.0,4.0
# From MPC 82312
P/2004 A1 (LONEOS),e,10.5517,124.8571,21.1192,7.969543,0.0438081,0.30987182,288.3112,07/27.0/2022,2000,g  6.5,4.0
# From MPC 54558
P/2004 DO29 (Spacewatch-LINEAR),e,14.5317,147.3749,40.5378,7.293505,0.0500380,0.44118962,326.0775,07/27.0/2022,2000,g 13.5,2.0
# From MPC 54823
P/2004 FY140 (LINEAR),e,2.1348,326.7767,242.1658,4.906303,0.0906927,0.16786264,232.7182,07/27.0/2022,2000,g 12.5,2.0
# From MPC 53304
P/2004 R3 (LINEAR-NEAT),e,12.7817,305.3381,37.7305,4.767064,0.0946951,0.25607228,29.2647,07/27.0/2022,2000,g 14.5,4.0
# From MPC 55521
P/2004 V3 (Siding Spring),e,50.4438,356.1303,322.4651,7.131847,0.0517489,0.44602923,334.9580,07/27.0/2022,2000,g 11.5,4.0
# From MPC 75705
P/2004 V5 (LINEAR-Hill),e,19.3414,47.7868,87.5861,7.987618,0.0436594,0.44444810,279.4518,07/27.0/2022,2000,g  8.0,4.0
# From MPC 54164
P/2005 E1 (Tubbiolo),e,4.2633,335.5737,193.9149,7.048325,0.0526714,0.37544349,337.4273,07/27.0/2022,2000,g 10.0,4.0
# From MPC 79019
P/2005 J1 (McNaught),e,31.7429,268.8266,338.9393,3.571627,0.1460175,0.56910037,202.1404,07/27.0/2022,2000,g 16.5,4.0
# From MPC 74246
P/2005 L1 (McNaught),e,7.7345,138.2447,149.9119,3.985666,0.1238662,0.21143456,32.8530,07/27.0/2022,2000,g  9.5,4.0
# From MPC 75706
P/2005 S2 (Skiff),e,3.1356,161.2240,229.3563,8.007109,0.0435001,0.19839309,257.1192,07/27.0/2022,2000,g  7.5,4.0
# From MPC 75706
P/2005 SB216 (LONEOS),e,24.1105,1.1297,83.2619,7.143306,0.0516244,0.46446371,294.4917,07/27.0/2022,2000,g 12.0,2.0
# From MPC 73461
P/2005 T3 (Read),e,6.2236,27.6780,6.6734,7.587937,0.0471540,0.17524684,290.2270,07/27.0/2022,2000,g  9.0,4.0
# From MPC 73461
P/2005 T4 (SWAN),e,160.2618,25.8973,41.8113,9.359799,0.0344195,0.92973259,211.2384,07/27.0/2022,2000,g 15.0,4.0
# From MPC 75706
P/2005 T5 (Broughton),e,21.3764,57.0001,304.6698,7.282504,0.0501514,0.55265527,307.1821,07/27.0/2022,2000,g 11.0,4.0
# From MPC 75707
P/2006 HR30 (Siding Spring),e,31.8520,309.8510,117.3540,7.809472,0.0451618,0.84297209,257.6375,07/27.0/2022,2000,g 11.0,4.0
# From MPC 75707
P/2007 A2 (Christensen),e,26.4862,300.9127,186.7010,6.335607,0.0618047,0.55827149,352.2710,07/27.0/2022,2000,g 13.5,4.0
# From MPC 75707
P/2007 C2 (Catalina),e,8.6098,275.3276,180.1605,6.997512,0.0532462,0.47193452,288.8873,07/27.0/2022,2000,g 10.0,4.0
# From MPC 84315
C/2007 D1 (LINEAR),e,41.5015,171.2361,339.8327,1216,0.0000232,0.99276855,0.0000,06/07.0968/2007,2000,g  3.5,4.0
# From MPC 82314
P/2007 K2 (Gibbs),e,7.6275,188.6344,347.3650,7.273738,0.0502421,0.68301232,278.7340,07/27.0/2022,2000,g 14.0,4.0
# From MPC 60925
P/2007 Q2 (Gilmore),e,10.2027,172.1524,162.8398,5.656593,0.0732608,0.67007533,44.4701,07/27.0/2022,2000,g 16.0,4.0
# From MPC 73462
P/2007 S1 (Zhao),e,5.9617,141.3608,245.2331,3.822846,0.1318633,0.33957094,350.5091,07/27.0/2022,2000,g 13.0,4.0
# From MPC 61994
P/2007 T2 (Kowalski),e,9.7523,3.3777,359.6587,3.045912,0.1854079,0.78566247,271.2663,07/27.0/2022,2000,g 18.5,4.0
# From MPC 75709
P/2008 L2 (Hill),e,25.8682,218.0178,141.2590,6.027433,0.0666048,0.61342130,340.8139,07/27.0/2022,2000,g 12.5,4.0
# From MPC 64114
P/2008 O3 (Boattini),e,32.3233,47.5664,341.1546,8.216389,0.0418488,0.69626287,216.3623,07/27.0/2022,2000,g 13.0,4.0
# From MPC 75710
P/2008 Y3 (McNaught),e,38.7771,262.8468,238.0659,8.047836,0.0431703,0.44571209,214.6151,07/27.0/2022,2000,g  8.5,4.0
# From MPC 75710
P/2009 B1 (Boattini),e,22.2321,297.0775,128.8912,6.737428,0.0563589,0.63548471,279.1295,07/27.0/2022,2000,g 13.0,4.0
# From MPC 66466
C/2009 G1 (STEREO),e,108.5643,120.5309,175.4977,461.9137,0.0000993,0.99753317,0.0000,04/17.9632/2009,2000,g  9.0,4.0
# From MPC 75710
P/2009 O3 (Hill),e,16.2883,183.6855,154.4825,7.767090,0.0455320,0.68784100,218.9013,07/27.0/2022,2000,g 12.5,4.0
# From MPC 68902
P/2009 Q5 (McNaught),e,40.9876,160.2784,209.0892,7.430802,0.0486576,0.60976251,228.7106,07/27.0/2022,2000,g 10.0,4.0
# From MPC112389
P/2009 T2 (La Sagra),e,27.6004,215.8887,216.3287,7.719557,0.0459532,0.76625015,211.0415,07/27.0/2022,2000,g 14.0,4.0
# From MPC105235
P/2009 WX51 (Catalina),e,9.5942,31.5764,118.2520,3.082761,0.1820934,0.73951950,112.5365,07/27.0/2022,2000,g 19.0,2.0
# From MPC 74247
P/2009 Y2 (Kowalski),e,29.9567,262.0386,172.1303,6.550005,0.0587952,0.63663866,266.5417,07/27.0/2022,2000,g 13.0,4.0
# From MPC 75711
P/2010 A3 (Hill),e,14.8169,63.6547,42.2709,6.085333,0.0656565,0.73368506,297.0391,07/27.0/2022,2000,g 14.0,4.0
# From MPC 75008
P/2010 C1 (Scotti),e,9.1267,141.8786,3.4257,7.104600,0.0520469,0.26007658,242.0195,07/27.0/2022,2000,g  9.5,4.0
# From MPC 75008
P/2010 D2 (WISE),e,57.0947,319.8850,119.9445,6.720564,0.0565712,0.45136129,257.6573,07/27.0/2022,2000,g 16.0,4.0
# From MPC 75009
P/2010 E2 (Jarnac),e,15.3847,177.8198,8.3148,8.640272,0.0388073,0.71943697,174.8923,07/27.0/2022,2000,g 14.0,4.0
# From MPC 72851
P/2010 H2 (Vales),e,14.2781,64.1871,128.0189,3.832353,0.1313729,0.19647357,234.2435,07/27.0/2022,2000,g  6.0,4.0
# From MPC 70361
P/2010 H3 (SOHO),e,23.0715,77.0923,26.1504,3.036400,0.1862798,0.98536401,0.0000,02/07.8808/2021,2000,g 20.0,2.0
# From MPC 73463
P/2010 H4 (Scotti),e,2.3178,44.7273,179.3650,6.598634,0.0581464,0.26627188,257.6614,07/27.0/2022,2000,g 10.5,4.0
# From MPC 74637
P/2010 H5 (Scotti),e,14.0575,24.7944,174.8219,7.169606,0.0513406,0.15253596,231.6140,07/27.0/2022,2000,g 13.0,2.0
# From MPC 98558
P/2010 J3 (McMillan),e,13.2695,106.4576,157.5873,8.979137,0.0366313,0.72579774,159.4438,07/27.0/2022,2000,g 11.0,4.0
# From MPC 84315
P/2010 JC81 (WISE),e,38.8142,30.8659,12.4245,8.106394,0.0427034,0.77777319,175.6012,07/27.0/2022,2000,g  9.0,4.0
# From MPC 74248
P/2010 T2 (PANSTARRS),e,7.8867,58.5948,352.7712,5.562861,0.0751202,0.32298548,315.0077,07/27.0/2022,2000,g 11.5,4.0
# From MPC 98558
P/2010 TO20 (LINEAR-Grauer),e,2.4788,43.2854,267.3775,5.832912,0.0699642,0.05562109,351.4032,07/27.0/2022,2000,g  9.0,4.0
# From MPC 82316
P/2010 U1 (Boattini),e,8.2192,280.6840,86.2014,6.503097,0.0594325,0.24908245,270.7595,07/27.0/2022,2000,g  9.5,4.0
# From MPEC 2022-M21
C/2010 U3 (Boattini),e,55.5508,42.9976,88.0414,2428,0.0000082,0.99652326,0.0000,02/25.2364/2019,2000,g  1.0,4.0
# From MPC 79021
P/2010 UH55 (Spacewatch),e,8.0385,232.9096,225.1440,6.654625,0.0574141,0.56361468,237.1701,07/27.0/2022,2000,g 11.0,4.0
# From MPC 75009
P/2010 WK (LINEAR),e,11.4016,11.3344,40.9735,5.762386,0.0712526,0.69042781,308.3095,07/27.0/2022,2000,g 14.5,2.0
# From MPC 84021
P/2011 C2 (Gibbs),e,10.8869,12.1207,160.5778,7.412685,0.0488361,0.26906726,189.1064,07/27.0/2022,2000,g  9.0,4.0
# From MPC 79866
P/2011 FR143 (Lemmon),e,15.9755,190.9490,349.9634,6.862835,0.0548212,0.45055063,228.9031,07/27.0/2022,2000,g 14.0,2.0
# From MPC 82317
P/2011 JB15 (Spacewatch-Boattini),e,19.1471,153.5836,111.0658,7.364602,0.0493151,0.31625789,189.4987,07/27.0/2022,2000,g  9.0,4.0
# From MPC 87913
P/2011 N1 (ASH),e,35.7591,77.5796,330.3735,6.245460,0.0631477,0.54487589,234.7883,07/27.0/2022,2000,g 11.5,4.0
# From MPC 75714
P/2011 NO1 (Elenin),e,15.2448,295.8254,263.7164,5.530471,0.0757811,0.77455709,319.2247,07/27.0/2022,2000,g 15.0,4.0
# From MPEC 2022-ED3
P/2011 P1 (McNaught),e,5.6611,4.2316,349.1150,7.459859,0.0483736,0.32765163,211.8303,07/27.0/2022,2000,g  9.0,4.0
# From MPEC 2022-HC2
P/2011 S1 (Gibbs),e,2.6870,218.8350,192.4641,8.582938,0.0391968,0.20137176,113.8321,07/27.0/2022,2000,g  8.0,4.0
# From MPC 79022
P/2011 UA134 (Spacewatch-PANSTARRS),e,10.4405,40.3999,32.4004,5.609380,0.0741877,0.62968958,290.5500,07/27.0/2022,2000,g 17.5,4.0
# From MPC 77406
P/2011 V1 (Boattini),e,7.3749,46.7897,269.3693,3.856866,0.1301225,0.55022823,181.3414,07/27.0/2022,2000,g 15.5,4.0
# From MPC 82718
P/2011 W1 (PANSTARRS),e,3.7186,161.7845,282.7656,4.665070,0.0978176,0.28789231,16.5511,07/27.0/2022,2000,g 11.5,4.0
# From MPC 79342
P/2011 Y2 (Boattini),e,6.3760,309.3380,131.9349,6.238545,0.0632527,0.71011544,240.1712,07/27.0/2022,2000,g 15.0,4.0
# From MPEC 2022-K19
P/2012 B1 (PANSTARRS),e,7.6102,36.2165,162.4202,6.531557,0.0590444,0.40893885,194.9722,07/27.0/2022,2000,g  9.0,4.0
# From MPC 78590
P/2012 C3 (PANSTARRS),e,9.0920,135.3677,344.9542,9.748681,0.0323806,0.63011148,359.9758,10/06.0/2011,2000,g 13.0,4.0
# From MPC 84931
